start=new Date('2021-10-29T00:00:00.000Z').valueOf();
sats=[{"APOAPSIS":"548.618","INCLINATION":"53.0530","RCS_SIZE":"LARGE","CENTER_NAME":"EARTH","PERIAPSIS":"545.834","TIME_SYSTEM":"UTC","MEAN_MOTION":"15.06395951","NORAD_CAT_ID":"46542","OBJECT_NAME":"STARLINK-1692","COUNTRY_CODE":"US","ELEMENT_SET_NO":"999","MEAN_ANOMALY":"270.8778","LAUNCH_DATE":"2020-10-06","BSTAR":"0.00000592700000","EPOCH":"2021-10-28T19:03:24.389856","PERIOD":"95.592","SEMIMAJOR_AXIS":"6925.361","GP_ID":"188367142","TLE_LINE1":"1 46542U 20070L   21301.79403229 -.00000193  00000-0  59270-5 0  9995","REF_FRAME":"TEME","OBJECT_TYPE":"PAYLOAD","CLASSIFICATION_TYPE":"U","FILE":"3189402","ARG_OF_PERICENTER":"89.2441","MEAN_ELEMENT_THEORY":"SGP4","SITE":"AFETR","EPHEMERIS_TYPE":"0","MEAN_MOTION_DOT":"-0.00000193","REV_AT_EPOCH":"5941","OBJECT_ID":"2020-070L","MEAN_MOTION_DDOT":"0.0000000000000","TLE_LINE2":"2 46542  53.0530 127.4132 0002010  89.2441 270.8778 15.06395951 59412","RA_OF_ASC_NODE":"127.4132","ECCENTRICITY":"0.00020100","DECAY_DATE":null},{"ARG_OF_PERICENTER":"88.3228","SITE":"AFETR","MEAN_ELEMENT_THEORY":"SGP4","TLE_LINE1":"1 46543U 20070M   21301.77928944  .00002983  00000-0  21904-3 0  9999","GP_ID":"188367393","FILE":"3189402","CLASSIFICATION_TYPE":"U","OBJECT_TYPE":"PAYLOAD","REF_FRAME":"TEME","TLE_LINE2":"2 46543  53.0527 127.4681 0001501  88.3228 271.7933 15.06409862 59415","MEAN_MOTION_DDOT":"0.0000000000000","RA_OF_ASC_NODE":"127.4681","OBJECT_ID":"2020-070M","REV_AT_EPOCH":"5941","DECAY_DATE":null,"ECCENTRICITY":"0.00015010","EPHEMERIS_TYPE":"0","MEAN_MOTION_DOT":"0.00002983","OBJECT_NAME":"STARLINK-1693","NORAD_CAT_ID":"46543","ELEMENT_SET_NO":"999","COUNTRY_CODE":"US","PERIAPSIS":"546.144","CENTER_NAME":"EARTH","RCS_SIZE":"LARGE","INCLINATION":"53.0527","APOAPSIS":"548.223","MEAN_MOTION":"15.06409862","TIME_SYSTEM":"UTC","BSTAR":"0.00021904000000","SEMIMAJOR_AXIS":"6925.318","PERIOD":"95.592","EPOCH":"2021-10-28T18:42:10.607616","MEAN_ANOMALY":"271.7933","LAUNCH_DATE":"2020-10-06"},{"MEAN_MOTION":"15.06402271","TIME_SYSTEM":"UTC","RCS_SIZE":"LARGE","CENTER_NAME":"EARTH","PERIAPSIS":"546.126","APOAPSIS":"548.287","INCLINATION":"53.0546","COUNTRY_CODE":"US","ELEMENT_SET_NO":"999","NORAD_CAT_ID":"46544","OBJECT_NAME":"STARLINK-1694","LAUNCH_DATE":"2020-10-06","MEAN_ANOMALY":"261.9857","SEMIMAJOR_AXIS":"6925.342","PERIOD":"95.592","EPOCH":"2021-10-28T18:36:12.172032","BSTAR":"0.00001595400000","FILE":"3189402","REF_FRAME":"TEME","OBJECT_TYPE":"PAYLOAD","CLASSIFICATION_TYPE":"U","TLE_LINE1":"1 46544U 20070N   21301.77514088 -.00000044  00000-0  15954-4 0  9996","GP_ID":"188367640","SITE":"AFETR","MEAN_ELEMENT_THEORY":"SGP4","ARG_OF_PERICENTER":"98.1309","MEAN_MOTION_DOT":"-0.00000044","EPHEMERIS_TYPE":"0","ECCENTRICITY":"0.00015600","DECAY_DATE":null,"OBJECT_ID":"2020-070N","TLE_LINE2":"2 46544  53.0546 112.4864 0001560  98.1309 261.9857 15.06402271 59624","MEAN_MOTION_DDOT":"0.0000000000000","RA_OF_ASC_NODE":"112.4864","REV_AT_EPOCH":"5962"},{"NORAD_CAT_ID":"46545","OBJECT_NAME":"STARLINK-1696","COUNTRY_CODE":"US","ELEMENT_SET_NO":"999","RCS_SIZE":"LARGE","CENTER_NAME":"EARTH","PERIAPSIS":"546.097","APOAPSIS":"548.349","INCLINATION":"53.0542","MEAN_MOTION":"15.06397038","TIME_SYSTEM":"UTC","BSTAR":"-0.00001192100000","SEMIMAJOR_AXIS":"6925.358","PERIOD":"95.592","EPOCH":"2021-10-28T21:10:47.676864","MEAN_ANOMALY":"280.4842","LAUNCH_DATE":"2020-10-06","ARG_OF_PERICENTER":"79.6330","SITE":"AFETR","MEAN_ELEMENT_THEORY":"SGP4","GP_ID":"188366392","TLE_LINE1":"1 46545U 20070P   21301.88249626 -.00000459  00000-0 -11921-4 0  9993","FILE":"3189402","OBJECT_TYPE":"PAYLOAD","REF_FRAME":"TEME","CLASSIFICATION_TYPE":"U","OBJECT_ID":"2020-070P","TLE_LINE2":"2 46545  53.0542 127.0153 0001626  79.6330 280.4842 15.06397038 59427","MEAN_MOTION_DDOT":"0.0000000000000","RA_OF_ASC_NODE":"127.0153","REV_AT_EPOCH":"5942","ECCENTRICITY":"0.00016260","DECAY_DATE":null,"EPHEMERIS_TYPE":"0","MEAN_MOTION_DOT":"-0.00000459"},{"EPHEMERIS_TYPE":"0","MEAN_MOTION_DOT":"0.00001563","TLE_LINE2":"2 46546  53.0536 127.0711 0001944  79.4217 280.6990 15.06408978 59428","RA_OF_ASC_NODE":"127.0711","MEAN_MOTION_DDOT":"0.0000000000000","OBJECT_ID":"2020-070Q","REV_AT_EPOCH":"5942","DECAY_DATE":null,"ECCENTRICITY":"0.00019440","GP_ID":"188366642","TLE_LINE1":"1 46546U 20070Q   21301.86775235  .00001563  00000-0  12380-3 0  9996","FILE":"3189402","CLASSIFICATION_TYPE":"U","REF_FRAME":"TEME","OBJECT_TYPE":"PAYLOAD","ARG_OF_PERICENTER":"79.4217","SITE":"AFETR","MEAN_ELEMENT_THEORY":"SGP4","MEAN_ANOMALY":"280.6990","LAUNCH_DATE":"2020-10-06","BSTAR":"0.00012380000000","SEMIMAJOR_AXIS":"6925.321","EPOCH":"2021-10-28T20:49:33.803040","PERIOD":"95.592","PERIAPSIS":"545.840","CENTER_NAME":"EARTH","RCS_SIZE":"LARGE","INCLINATION":"53.0536","APOAPSIS":"548.532","MEAN_MOTION":"15.06408978","TIME_SYSTEM":"UTC","OBJECT_NAME":"STARLINK-1697","NORAD_CAT_ID":"46546","ELEMENT_SET_NO":"999","COUNTRY_CODE":"US"},{"MEAN_ELEMENT_THEORY":"SGP4","SITE":"AFETR","ARG_OF_PERICENTER":"86.8559","CLASSIFICATION_TYPE":"U","OBJECT_TYPE":"PAYLOAD","REF_FRAME":"TEME","FILE":"3189402","GP_ID":"188367894","TLE_LINE1":"1 46547U 20070R   21301.83088917  .00001046  00000-0  89125-4 0  9996","DECAY_DATE":null,"ECCENTRICITY":"0.00017700","REV_AT_EPOCH":"5942","TLE_LINE2":"2 46547  53.0534 127.2437 0001770  86.8559 273.2632 15.06395601 59421","RA_OF_ASC_NODE":"127.2437","MEAN_MOTION_DDOT":"0.0000000000000","OBJECT_ID":"2020-070R","MEAN_MOTION_DOT":"0.00001046","EPHEMERIS_TYPE":"0","ELEMENT_SET_NO":"999","COUNTRY_CODE":"US","OBJECT_NAME":"STARLINK-1698","NORAD_CAT_ID":"46547","TIME_SYSTEM":"UTC","MEAN_MOTION":"15.06395601","INCLINATION":"53.0534","APOAPSIS":"548.453","CENTER_NAME":"EARTH","PERIAPSIS":"546.001","RCS_SIZE":"LARGE","PERIOD":"95.592","EPOCH":"2021-10-28T19:56:28.824288","SEMIMAJOR_AXIS":"6925.362","BSTAR":"0.00008912500000","LAUNCH_DATE":"2020-10-06","MEAN_ANOMALY":"273.2632"},{"NORAD_CAT_ID":"46548","OBJECT_NAME":"STARLINK-1699","COUNTRY_CODE":"US","ELEMENT_SET_NO":"999","RCS_SIZE":"LARGE","PERIAPSIS":"546.045","CENTER_NAME":"EARTH","APOAPSIS":"548.390","INCLINATION":"53.0550","MEAN_MOTION":"15.06398713","TIME_SYSTEM":"UTC","BSTAR":"0.00011982000000","SEMIMAJOR_AXIS":"6925.353","EPOCH":"2021-10-28T20:12:24.455808","PERIOD":"95.592","MEAN_ANOMALY":"280.1690","LAUNCH_DATE":"2020-10-06","ARG_OF_PERICENTER":"79.9490","SITE":"AFETR","MEAN_ELEMENT_THEORY":"SGP4","GP_ID":"188368141","TLE_LINE1":"1 46548U 20070S   21301.84194972  .00001504  00000-0  11982-3 0  9991","FILE":"3189402","OBJECT_TYPE":"PAYLOAD","REF_FRAME":"TEME","CLASSIFICATION_TYPE":"U","OBJECT_ID":"2020-070S","RA_OF_ASC_NODE":"127.2032","TLE_LINE2":"2 46548  53.0550 127.2032 0001693  79.9490 280.1690 15.06398713 59420","MEAN_MOTION_DDOT":"0.0000000000000","REV_AT_EPOCH":"5942","ECCENTRICITY":"0.00016930","DECAY_DATE":null,"EPHEMERIS_TYPE":"0","MEAN_MOTION_DOT":"0.00001504"},{"DECAY_DATE":null,"ECCENTRICITY":"0.00017830","MEAN_MOTION_DDOT":"0.0000000000000","TLE_LINE2":"2 46549  53.0522 127.3606 0001783  80.6618 279.4572 15.06405129 59418","RA_OF_ASC_NODE":"127.3606","OBJECT_ID":"2020-070T","REV_AT_EPOCH":"5941","MEAN_MOTION_DOT":"0.00002092","EPHEMERIS_TYPE":"0","SITE":"AFETR","MEAN_ELEMENT_THEORY":"SGP4","ARG_OF_PERICENTER":"80.6618","FILE":"3189402","CLASSIFICATION_TYPE":"U","REF_FRAME":"TEME","OBJECT_TYPE":"PAYLOAD","GP_ID":"188366893","TLE_LINE1":"1 46549U 20070T   21301.80415033  .00002092  00000-0  15928-3 0  9999","SEMIMAJOR_AXIS":"6925.333","EPOCH":"2021-10-28T19:17:58.588512","PERIOD":"95.592","BSTAR":"0.00015928000000","LAUNCH_DATE":"2020-10-06","MEAN_ANOMALY":"279.4572","ELEMENT_SET_NO":"999","COUNTRY_CODE":"US","OBJECT_NAME":"STARLINK-1700","NORAD_CAT_ID":"46549","MEAN_MOTION":"15.06405129","TIME_SYSTEM":"UTC","PERIAPSIS":"545.963","CENTER_NAME":"EARTH","RCS_SIZE":"LARGE","INCLINATION":"53.0522","APOAPSIS":"548.433"},{"EPHEMERIS_TYPE":"0","MEAN_MOTION_DOT":"0.00001957","REV_AT_EPOCH":"5941","RA_OF_ASC_NODE":"127.4233","TLE_LINE2":"2 46550  53.0537 127.4233 0001899  83.6637 276.4569 15.06407207 59417","MEAN_MOTION_DDOT":"0.0000000000000","OBJECT_ID":"2020-070U","DECAY_DATE":null,"ECCENTRICITY":"0.00018990","GP_ID":"188367143","TLE_LINE1":"1 46550U 20070U   21301.79034084  .00001957  00000-0  15019-3 0  9992","CLASSIFICATION_TYPE":"U","OBJECT_TYPE":"PAYLOAD","REF_FRAME":"TEME","FILE":"3189402","ARG_OF_PERICENTER":"83.6637","MEAN_ELEMENT_THEORY":"SGP4","SITE":"AFETR","MEAN_ANOMALY":"276.4569","LAUNCH_DATE":"2020-10-06","BSTAR":"0.00015019000000","EPOCH":"2021-10-28T18:58:05.448576","PERIOD":"95.592","SEMIMAJOR_AXIS":"6925.326","INCLINATION":"53.0537","APOAPSIS":"548.507","CENTER_NAME":"EARTH","PERIAPSIS":"545.876","RCS_SIZE":"LARGE","TIME_SYSTEM":"UTC","MEAN_MOTION":"15.06407207","OBJECT_NAME":"STARLINK-1701","NORAD_CAT_ID":"46550","ELEMENT_SET_NO":"999","COUNTRY_CODE":"US"},{"COUNTRY_CODE":"US","ELEMENT_SET_NO":"999","NORAD_CAT_ID":"46552","OBJECT_NAME":"STARLINK-1649","MEAN_MOTION":"15.06402314","TIME_SYSTEM":"UTC","RCS_SIZE":"LARGE","PERIAPSIS":"545.963","CENTER_NAME":"EARTH","APOAPSIS":"548.450","INCLINATION":"53.0523","SEMIMAJOR_AXIS":"6925.341","PERIOD":"95.592","EPOCH":"2021-10-28T17:59:04.143264","BSTAR":"0.00022786000000","LAUNCH_DATE":"2020-10-06","MEAN_ANOMALY":"274.4759","SITE":"AFETR","MEAN_ELEMENT_THEORY":"SGP4","ARG_OF_PERICENTER":"85.6435","FILE":"3189402","OBJECT_TYPE":"PAYLOAD","REF_FRAME":"TEME","CLASSIFICATION_TYPE":"U","GP_ID":"188367394","TLE_LINE1":"1 46552U 20070W   21301.74935351  .00003114  00000-0  22786-3 0  9992","ECCENTRICITY":"0.00017950","DECAY_DATE":null,"OBJECT_ID":"2020-070W","TLE_LINE2":"2 46552  53.0523 112.6088 0001795  85.6435 274.4759 15.06402314 59627","MEAN_MOTION_DDOT":"0.0000000000000","RA_OF_ASC_NODE":"112.6088","REV_AT_EPOCH":"5962","MEAN_MOTION_DOT":"0.00003114","EPHEMERIS_TYPE":"0"}];
